{
  "type": "FeatureCollection",
  "features": [
    {
      "type": "Feature",
      "properties": {
        "norad_id": 33860,
        "name": "IRIDIUM 33 DEB",
        "group": "iridium-33-debris",
        "lat": 51.059396146643216,
        "lon": -153.92929169780993,
        "alt_km": 667.0155455077702,
        "timestamp": "2025-12-05T05:43:15.494466+00:00",
        "meta_object_name": "IRIDIUM 33 DEB",
        "meta_object_id": "1997-051AD",
        "meta_epoch": "2025-12-04T15:05:54.621024",
        "meta_mean_motion": 14.67202229,
        "meta_eccentricity": 0.000847,
        "meta_inclination": 86.3845,
        "meta_ra_of_asc_node": 30.8279,
        "meta_arg_of_pericenter": 24.4738,
        "meta_mean_anomaly": 128.1182,
        "meta_ephemeris_type": 0,
        "meta_classification_type": "U",
        "meta_norad_cat_id": 33860,
        "meta_element_set_no": 999,
        "meta_rev_at_epoch": 88603,
        "meta_bstar": 0.0030619,
        "meta_mean_motion_dot": 0.00017288,
        "meta_mean_motion_ddot": 0,
        "tle_line1": "1 33860U 97051AD  25338.62910441  .00017288  00000+0  30619-2 0  9996",
        "tle_line2": "2 33860  86.3845  30.8279 0008470  24.4738 128.1182 14.67202229886035"
      },
      "geometry": {
        "type": "Point",
        "coordinates": [
          -153.92929169780993,
          51.059396146643216
        ]
      }
    },
    {
      "type": "Feature",
      "properties": {
        "norad_id": 33862,
        "name": "IRIDIUM 33 DEB",
        "group": "iridium-33-debris",
        "lat": 71.86667419762298,
        "lon": -150.2142970362622,
        "alt_km": 619.5704543799011,
        "timestamp": "2025-12-05T05:43:15.494478+00:00",
        "meta_object_name": "IRIDIUM 33 DEB",
        "meta_object_id": "1997-051AF",
        "meta_epoch": "2025-12-04T16:42:30.042720",
        "meta_mean_motion": 14.69271517,
        "meta_eccentricity": 0.0053935,
        "meta_inclination": 86.41,
        "meta_ra_of_asc_node": 41.0767,
        "meta_arg_of_pericenter": 95.9978,
        "meta_mean_anomaly": 25.5972,
        "meta_ephemeris_type": 0,
        "meta_classification_type": "U",
        "meta_norad_cat_id": 33862,
        "meta_element_set_no": 999,
        "meta_rev_at_epoch": 88705,
        "meta_bstar": 0.0035031,
        "meta_mean_motion_dot": 0.00021187,
        "meta_mean_motion_ddot": 0,
        "tle_line1": "1 33862U 97051AF  25338.69618105  .00021187  00000+0  35031-2 0  9993",
        "tle_line2": "2 33862  86.4100  41.0767 0053935  95.9978  25.5972 14.69271517887051"
      },
      "geometry": {
        "type": "Point",
        "coordinates": [
          -150.2142970362622,
          71.86667419762298
        ]
      }
    },
    {
      "type": "Feature",
      "properties": {
        "norad_id": 33866,
        "name": "IRIDIUM 33 DEB",
        "group": "iridium-33-debris",
        "lat": -75.5508324804651,
        "lon": 81.6650485868266,
        "alt_km": 826.6145284146814,
        "timestamp": "2025-12-05T05:43:15.494489+00:00",
        "meta_object_name": "IRIDIUM 33 DEB",
        "meta_object_id": "1997-051AK",
        "meta_epoch": "2025-12-04T14:58:37.870752",
        "meta_mean_motion": 14.25229782,
        "meta_eccentricity": 0.0113814,
        "meta_inclination": 86.3001,
        "meta_ra_of_asc_node": 96.4688,
        "meta_arg_of_pericenter": 187.2582,
        "meta_mean_anomaly": 185.4361,
        "meta_ephemeris_type": 0,
        "meta_classification_type": "U",
        "meta_norad_cat_id": 33866,
        "meta_element_set_no": 999,
        "meta_rev_at_epoch": 86695,
        "meta_bstar": 0.0014526,
        "meta_mean_motion_dot": 3.671e-05,
        "meta_mean_motion_ddot": 0,
        "tle_line1": "1 33866U 97051AK  25338.62404943  .00003671  00000+0  14526-2 0  9997",
        "tle_line2": "2 33866  86.3001  96.4688 0113814 187.2582 185.4361 14.25229782866952"
      },
      "geometry": {
        "type": "Point",
        "coordinates": [
          81.6650485868266,
          -75.5508324804651
        ]
      }
    },
    {
      "type": "Feature",
      "properties": {
        "norad_id": 33867,
        "name": "IRIDIUM 33 DEB",
        "group": "iridium-33-debris",
        "lat": -63.56329213048472,
        "lon": -178.68050132111406,
        "alt_km": 412.4029009827873,
        "timestamp": "2025-12-05T05:43:15.494500+00:00",
        "meta_object_name": "IRIDIUM 33 DEB",
        "meta_object_id": "1997-051AL",
        "meta_epoch": "2025-12-04T13:14:30.177024",
        "meta_mean_motion": 15.55427003,
        "meta_eccentricity": 0.001226,
        "meta_inclination": 86.3624,
        "meta_ra_of_asc_node": 354.3184,
        "meta_arg_of_pericenter": 96.5296,
        "meta_mean_anomaly": 263.7362,
        "meta_ephemeris_type": 0,
        "meta_classification_type": "U",
        "meta_norad_cat_id": 33867,
        "meta_element_set_no": 999,
        "meta_rev_at_epoch": 89383,
        "meta_bstar": 0.010802,
        "meta_mean_motion_dot": 0.0080017,
        "meta_mean_motion_ddot": 0,
        "tle_line1": "1 33867U 97051AL  25338.55173816  .00800170  00000+0  10802-1 0  9993",
        "tle_line2": "2 33867  86.3624 354.3184 0012260  96.5296 263.7362 15.55427003893836"
      },
      "geometry": {
        "type": "Point",
        "coordinates": [
          -178.68050132111406,
          -63.56329213048472
        ]
      }
    },
    {
      "type": "Feature",
      "properties": {
        "norad_id": 33870,
        "name": "IRIDIUM 33 DEB",
        "group": "iridium-33-debris",
        "lat": -6.999300731439062,
        "lon": -118.07783645512549,
        "alt_km": 729.2720027537662,
        "timestamp": "2025-12-05T05:43:15.494511+00:00",
        "meta_object_name": "IRIDIUM 33 DEB",
        "meta_object_id": "1997-051AP",
        "meta_epoch": "2025-12-04T12:31:35.253120",
        "meta_mean_motion": 14.45780101,
        "meta_eccentricity": 0.0020597,
        "meta_inclination": 86.3758,
        "meta_ra_of_asc_node": 61.7832,
        "meta_arg_of_pericenter": 205.3349,
        "meta_mean_anomaly": 215.0687,
        "meta_ephemeris_type": 0,
        "meta_classification_type": "U",
        "meta_norad_cat_id": 33870,
        "meta_element_set_no": 999,
        "meta_rev_at_epoch": 88018,
        "meta_bstar": 0.0020187,
        "meta_mean_motion_dot": 7.196e-05,
        "meta_mean_motion_ddot": 0,
        "tle_line1": "1 33870U 97051AP  25338.52193580  .00007196  00000+0  20187-2 0  9999",
        "tle_line2": "2 33870  86.3758  61.7832 0020597 205.3349 215.0687 14.45780101880181"
      },
      "geometry": {
        "type": "Point",
        "coordinates": [
          -118.07783645512549,
          -6.999300731439062
        ]
      }
    },
    {
      "type": "Feature",
      "properties": {
        "norad_id": 33881,
        "name": "IRIDIUM 33 DEB",
        "group": "iridium-33-debris",
        "lat": 52.32007290662717,
        "lon": -74.6923841189303,
        "alt_km": 686.1890729756487,
        "timestamp": "2025-12-05T05:43:15.494522+00:00",
        "meta_object_name": "IRIDIUM 33 DEB",
        "meta_object_id": "1997-051BA",
        "meta_epoch": "2025-12-04T15:59:51.159840",
        "meta_mean_motion": 14.56341841,
        "meta_eccentricity": 0.0061193,
        "meta_inclination": 86.3867,
        "meta_ra_of_asc_node": 110.249,
        "meta_arg_of_pericenter": 200.9329,
        "meta_mean_anomaly": 171.205,
        "meta_ephemeris_type": 0,
        "meta_classification_type": "U",
        "meta_norad_cat_id": 33881,
        "meta_element_set_no": 999,
        "meta_rev_at_epoch": 87383,
        "meta_bstar": 0.004493,
        "meta_mean_motion_dot": 0.00020483,
        "meta_mean_motion_ddot": 0,
        "tle_line1": "1 33881U 97051BA  25338.66656435  .00020483  00000+0  44930-2 0  9995",
        "tle_line2": "2 33881  86.3867 110.2490 0061193 200.9329 171.2050 14.56341841873837"
      },
      "geometry": {
        "type": "Point",
        "coordinates": [
          -74.6923841189303,
          52.32007290662717
        ]
      }
    },
    {
      "type": "Feature",
      "properties": {
        "norad_id": 33884,
        "name": "IRIDIUM 33 DEB",
        "group": "iridium-33-debris",
        "lat": -52.357336220981956,
        "lon": -162.07361448237077,
        "alt_km": 648.8254159770913,
        "timestamp": "2025-12-05T05:43:15.494533+00:00",
        "meta_object_name": "IRIDIUM 33 DEB",
        "meta_object_id": "1997-051BD",
        "meta_epoch": "2025-12-04T02:54:00.284832",
        "meta_mean_motion": 14.77168398,
        "meta_eccentricity": 0.00106133,
        "meta_inclination": 86.3697,
        "meta_ra_of_asc_node": 13.7089,
        "meta_arg_of_pericenter": 355.5376,
        "meta_mean_anomaly": 57.9595,
        "meta_ephemeris_type": 0,
        "meta_classification_type": "U",
        "meta_norad_cat_id": 33884,
        "meta_element_set_no": 999,
        "meta_rev_at_epoch": 88720,
        "meta_bstar": 0.0029953103,
        "meta_mean_motion_dot": 0.00021274,
        "meta_mean_motion_ddot": 0,
        "tle_line1": "1 33884U 97051BD  25338.12083663  .00021274  00000+0  29953-2 0  9993",
        "tle_line2": "2 33884  86.3697  13.7089 0010613 355.5376  57.9595 14.77168398887209"
      },
      "geometry": {
        "type": "Point",
        "coordinates": [
          -162.07361448237077,
          -52.357336220981956
        ]
      }
    }
  ]
}